Origin Time       2016/04/16 01:25:00
Lat.              32.753
Long.             130.762
Depth. (km)       12
Mag.              7.3
Station Code      NGSH02
Station Lat.      33.2122
Station Long.     129.7652
Station Height(m) 28
Record Time       2016/04/16 01:25:25
Sampling Freq(Hz) 100Hz
Duration Time(s)  120
Dir.              3
Scale Factor      2940(gal)/6170270
Max. Acc. (gal)   9.127
Last Correction   2016/04/16 01:25:10
Memo.             
[...]
   -9982   -10384   -10353    -9771    -9639   -10181   -10555   -10278 
   -9829    -9724    -9908    -9995    -9744    -9424    -9363    -9601 
   -9912    -9974   -10281   -11204   -11603   -10743    -9472    -8993 
   -9825   -11041   -11707   -12472   -13754   -14708   -14593   -13851 
  -13761   -14601   -15508   -16087   -16062   -15141   -14054   -13454 
  -12714   -11299    -9944    -9568   -10001   -10482   -10438    -9633 
   -8546    -7951    -7910    -8143    -8481    -8522    -8200    -8207 
   -8737    -9157    -9563   -10683   -12324   -13747   -14484   -14261 
  -13439   -12748   -12454   -12399   -12350   -12347   -12580   -13038 
  -13415   -13091   -12027   -10978   -10420   -10501   -10914   -11092 
  -11498   -12566   -13463   -13747   -13640   -13126   -12654   -12747 
  -13046   -13137   -13168   -13264   -13132   -12524   -11819   -11435 
  -11401   -11804   -12345   -12066   -10704    -9386    -9051    -9120 
   -8867    -8671    -8656    -8374    -8169    -8631    -9501   -10289 
  -10768   -10980   -11294   -11754   -11753   -11138   -10614   -10636 
  -11016   -11273   -11070   -10986   -11361   -11188   -10509   -10479 
  -10828   -11122   -11833   -12668   -12800   -12100   -11194   -10920 
  -11598   -13077   -14681   -15206   -14624   -14084   -13531   -12472 
  -11829   -12109   -12557   -12973   -13549   -13981   -14240   -14584 
  -14634   -13751   -12368   -11436   -10604    -9263    -8103    -7732 
   -8103    -8983    -9428    -8904    -8136    -7548    -7129    -7094 
   -7323    -7687    -8462    -9517   -10411   -11273   -12330   -13345 
  -14284   -15161   -15361   -14697   -14161   -14600   -15542   -15834 
  -15212   -14605   -14403   -13852   -12969   -12573   -12441   -12273 
  -12353   -12155   -11334   -10521    -9847    -9080    -8391    -7872 
   -7389    -7024    -7162    -7736    -7860    -7246    -6832    -7185 
   -8016    -8847    -9095    -8859    -9105   -10132   -11209   -11585 
  -11312   -11250   -11764   -12251   -12276   -11794   -11076   -10878 
  -11414   -12155   -12658   -12544   -11774   -10736    -9961   -10230 
  -11507   -12642   -13097   -12956   -12449   -12478   -13239   -13774 
  -13940   -14152   -14172   -13737   -13143   -12871   -12718   -12354 
  -12394   -12740   -12318   -11440   -11071   -11055   -10893   -10476 
   -9773    -8827    -8128    -8208    -8638    -8537    -8010    -7743 
   -7573    -7102    -6939    -7522    -8433    -9627   -11040   -11921 
  -11856   -10967    -9812    -9396   -10021   -11034   -11575   -11208 
  -10693   -10867   -11201   -11033   -10693   -10716   -10877   -10555 
   -9875    -9314    -8864    -8707    -9023    -9311    -9577   -10673 
  -12736   -14889   -16329   -16767   -16080   -14467   -12958   -12459 
  -12667   -13164   -14186   -15413   -15910   -15448   -14347   -12879 
  -11692   -11208   -10900   -10372    -9849    -9545    -9582    -9888 
   -9940    -9121    -7764    -7200    -7688    -8164    -8385    -8627 
   -8570    -8183    -7854    -7615    -7574    -8368   -10423   -13033 
  -14752   -15049   -14727   -14391   -13992   -13676   -13542   -13508 
  -13684   -13813   -13707   -13768   -13445   -11789    -9796    -9125 
   -9689   -10145    -9505    -8132    -7271    -7133    -6769    -6168 
   -6288    -7102    -7839    -8316    -8539    -8346    -7834    -7375 
   -7381    -7949    -8904   -10008   -10612   -10251    -9448    -9018 
   -9459   -10582   -11344   -11047   -10188    -9821   -10319   -10707 
  -10385   -10187   -10390   -10545   -10524   -10062    -9673   -10401 
  -11747   -12939   -14094   -14845   -14717   -13717   -12068   -10829 
  -10931   -11596   -11695   -11351   -11338   -11902   -12338   -11780 
  -10426    -9397    -9137    -8819    -7891    -7053    -7199    -8302 
   -9496   -10108   -10203   -10175   -10358   -10665   -10667   -10309 
  -10040   -10256   -10695   -10953   -11300   -11724   -11836   -12015 
  -12403   -12482   -12574   -13346   -14461   -14992   -14308   -12733 
  -11385   -10790   -10542   -10271   -10020   -10231   -11129   -11861 
  -11604   -10767    -9850    -9050    -8828    -9262   -10136   -11238 
  -11899   -11868   -11618   -11271   -10860   -10788   -11176   -11667 
  -11892   -11755   -11405   -11109   -11097   -11397   -11608   -11114 
   -9989    -9180    -9307    -9875    -9928    -9181    -8236    -7653 
   -7350    -7136    -7130    -7437    -8153    -9334   -10706   -12025 
  -13035   -13403   -13412   -13343   -13022   -12703   -12770   -13367 
  -14294   -14747   -14523   -14233   -14206   -14724   -15784   -16601 
  -16628   -16224   -15979   -15556   -14063   -12079   -11196   -11397 
  -11470   -11162   -10628    -9735    -9130    -9353    -9743    -9974 
  -10270   -10461   -10593   -10530    -9466    -7646    -6383    -6388 
   -7546    -8991    -9963   -10983   -12366   -13156   -12878   -11956 
  -10778   -10100   -10526   -11223   -11280   -11215   -11438   -11234 
  -10158    -8796    -8209    -8800    -9629    -9722    -9416    -9469 
   -9719    -9508    -8991    -9022    -9861   -10796   -11003   -10512 
   -9952    -9798   -10333   -11216   -11526   -11090   -10565   -10485 
  -10952   -11523   -11737   -11863   -12308   -12933   -13527   -13982 
  -13936   -13051   -11554   -10214    -9799   -10443   -11673   -12892 
  -13623   -13774   -13664   -13783   -14666   -16020   -16464   -15478 
  -14335   -14075   -14107   -13839   -13629   -13581   -13564   -13489 
  -12791   -11582   -11000   -11334   -12061   -12783   -12711   -11505 
  -10436   -10582   -11435   -12205   -12421   -12230   -12760   -14057 
  -14659   -14313   -13942   -13719   -13359   -12941   -12770   -12974 
  -13158   -12884   -12531   -12911   -14186   -15533   -15876   -15059 
  -13922   -13160   -12884   -12731   -12036   -10905   -10280   -10388 
  -10574   -10338    -9692    -9036    -8938    -9662   -10640   -10925 
  -10290    -9390    -9075    -9572   -10265   -10293    -9542    -9312 
  -10632   -12225   -12384   -11230    -9689    -8296    -7279    -6648 
   -6506    -7476    -9761   -12027   -12942   -12687   -11603    -9810 
   -8283    -7813    -8062    -8490    -8534    -7716    -6751    -6748 
   -7228    -7285    -7431    -8182    -9032    -9645   -10099   -10434 
  -10682   -10550    -9770    -8891    -8679    -9603   -11542   -13403 
  -14494   -15017   -14960   -14501   -13829   -12817   -12394   -13239 
  -13953   -13546   -12601   -11516   -10601   -10313   -10565   -11152 
  -11923   -12262   -11409    -9768    -9018    -9617   -10096    -9787 
   -9238    -8706    -8738   -10132   -12477   -14416   -15287   -15796 
  -16457   -16459   -15355   -13477   -10984    -8919    -8696    -9949 
  -11156   -11436   -11239   -11346   -11507   -11398   -11232   -11089 
  -11243   -11453   -10907   -10200   -10242   -10632   -10976   -11357 
  -11984   -12871   -13374   -13176   -12672   -11908   -10664    -9249 
   -8513    -9003   -10260   -11518   -12431   -12867   -13051   -13088 
  -12437   -11384   -11105   -11622   -12093   -12224   -12285   -12770 
  -13664   -14432   -14870   -14712   -13676   -12408   -11580   -10940 
  -10251    -9558    -8509    -6741    -4661    -3152    -2851    -3898 
   -5897    -7831    -8771    -8863    -8568    -7935    -7630    -8354 
   -9566   -10602   -11271   -11404   -11307   -11249   -10780    -9822 
   -9187    -9502   -10300   -10497    -9735    -8623    -8139    -8824 
   -9923   -10415   -10257    -9646    -8810    -8128    -7246    -5737 
   -4641    -5147    -6541    -7428    -7696    -8070    -9045   -10670 
  -12316   -13064   -12965   -12919   -13333   -14024   -14833   -15770 
  -16903   -18121   -19057   -19133   -18114   -16965   -16688   -16853 
  -16773   -16505   -16419   -16756   -17214   -17324   -16993   -16303 
  -15424   -14464   -13477   -12905   -13100   -13563   -13709   -13490 
  -12864   -11864   -10747    -9316    -7525    -6382    -6465    -7299 
   -8759   -10360   -10854   -10480   -10679   -12025   -14048   -15518 
  -15515   -14556   -13672   -13513   -14074   -14653   -14697   -14004 
  -12604   -11518   -11894   -13141   -13976   -14088   -13644   -13116 
  -13009   -12945   -12451   -11443    -9780    -8128    -7685    -8522 
   -9410    -9047    -7758    -7009    -6969    -6930    -6894    -6936 
   -6984    -7225    -7450    -7223    -6763    -6530    -6612    -7102 
   -7897    -8089    -6914    -5179    -4678    -5872    -7140    -6995 
   -5862    -5267    -5855    -6563    -6691    -7371    -9435   -12100 
  -14163   -14709   -13777   -12755   -12617   -12633   -11908   -10756 
   -9964    -9793    -9958   -10206   -10658   -11467   -12468   -13238 
  -13176   -11852    -9752    -7995    -6987    -6218    -5359    -4698 
   -4794    -5727    -6675    -7119    -7643    -8864   -10618   -12204 
  -13266   -14071   -15010   -16793   -19412   -21137   -21124   -20529 
  -19992   -19206   -18102   -16699   -15188   -14190   -14050   -14364 
  -14359   -13670   -12911   -12824   -13176   -13432   -13526   -13491 
  -13353   -13371   -13665   -14043   -14667   -15948   -17683   -19251 
  -20033   -19653   -18488   -17352   -16866   -17408   -18791   -20123 
  -20644   -20304   -19167   -17138   -14635   -12293   -10246    -8842 
   -8533    -8755    -9018    -9721   -10530   -10410    -9227    -7595 
   -5901    -4322    -3599    -4766    -7443    -9740   -10271    -9323 
   -8092    -7059    -5672    -3947    -2771    -2612    -3415    -4628 
   -5469    -6207    -7452    -8992   -10688   -12061   -12015   -10868 
   -9783    -8705    -7367    -6219    -5792    -6482    -8076    -9404 
   -9209    -7565    -6298    -6876    -8611   -10343   -11866   -13050 
  -13810   -14436   -14874   -15020   -15274   -15818   -16467   -17104 
  -17339   -16628   -14995   -12734   -10220    -8348    -7790    -8338 
   -9586   -11006   -11978   -12328   -11829   -10424    -9042    -8329 
   -8021    -8062    -8466    -9155   -10129   -10780   -10612   -10111 
   -9857   -10092   -10923   -12298   -14112   -15951   -16918   -16335 
  -14571   -12738   -11742   -11765   -12343   -13217   -14659   -16354 
  -17190   -16587   -15269   -14524   -14569   -14366   -13385   -12293 
  -11859   -12057   -12323   -12368   -12320   -12094   -11258    -9844 
   -8662    -8305    -8674    -9493   -10423   -11255   -12072   -12430 
  -11842   -11286   -11752   -12397   -12369   -12233   -12566   -13174 
  -13623   -13913   -14787   -16417   -17438   -16974   -16149   -16122 
  -16537   -16687   -16405   -15680   -14538   -13176   -11860   -10810 
  -10297   -10533   -11246   -11910   -12445   -13173   -14302   -15640 
  -16680   -16977   -16651   -16389   -16489   -16250   -15034   -13379 
  -12219   -11643   -11062   -10078    -8739    -7221    -5616    -4126 
   -3057    -2373    -2014    -2389    -3444    -4424    -5002    -5306 
   -5469    -5722    -6203    -6825    -7313    -7553    -7674    -7346 
   -6441    -5656    -5056    -4496    -4760    -5930    -7171    -8071 
   -8407    -8421    -9015   -10432   -12043   -13418   -14473   -14958 
  -14726   -14104   -13392   -12967   -13424   -14275   -14422   -14202 
  -14251   -13776   -12695   -12649   -13894   -14926   -15318   -15867 
  -17106   -18856   -20424   -21229   -21710   -22815   -24067   -24121 
  -22870   -20990   -19078   -17862   -17543   -17444   -17095   -16714 
  -16369   -15373   -13201   -10552    -8570    -7578    -7438    -8060 
   -8721    -8543    -7952    -7825    -8241    -9196   -10331   -10359 
   -8923    -6871    -4652    -2949    -2557    -3116    -4254    -5748 
   -6613    -6535    -6086    -5560    -5361    -5607    -5632    -5354 
   -5363    -5647    -5864    -6083    -6274    -6193    -6114    -6133 
   -5436    -3933    -2868    -2862    -3511    -4692    -6333    -7910 
   -9040    -9388    -8923    -8679    -9304   -10203   -10955   -11173 
  -10716   -10691   -11479   -12104   -12191   -11757   -10937   -10318 
   -9755    -8525    -7232    -7299    -8311    -8511    -7837    -7517 
   -7992    -9276   -11108   -12612   -13339   -13728   -14266   -14751 
  -14668   -14351   -14529   -15193   -16048   -16669   -16501   -15706 
  -15108   -15266   -15841   -16100   -15875   -15083   -13780   -12957 
  -13171   -13717   -13972   -13730   -12883   -11545    -9763    -7642 
   -5854    -5135    -5490    -6277    -6955    -7727    -8866    -9833 
  -10178   -10371   -11103   -12536   -14336   -16150   -17797   -19206 
  -20283   -20852   -21009   -20877   -20356   -19977   -20163   -19901 
  -18423   -16349   -14405   -12988   -12180   -11847   -11948   -11992 
  -11508   -10879   -10461   -10329   -10696   -11415   -11893   -11692 
  -10791    -9361    -7680    -6334    -6045    -7234    -9415   -11295 
  -12366   -12921   -12744   -11802   -10566    -9360    -8624    -8395 
   -8103    -7586    -6679    -5100    -3494    -2971    -3961    -5898 
   -7714    -8699    -8716    -8183    -7910    -8166    -8390    -8122 
   -7528    -7197    -7374    -7160    -5676    -3523    -1715     -343 
    1060     2634     3699     3464     2272     1363     1536     2462 
    3342     3840     3972     3858     3580     2829     1516      230 
    -566    -1036    -1690    -2799    -3981    -4994    -6545    -8890 
  -10919   -12107   -13045   -13950   -15051   -16996   -19728   -22421 
  -24535   -26121   -27319   -28084   -28430   -28691   -29092   -29404 
  -29643   -29953   -29885   -29089   -27942   -27083   -26918   -27203 
  -27121   -26429   -26021   -26491   -27227   -27608   -27913   -28744 
  -29932   -30362   -29346   -27375   -25323   -23929   -23386   -22992 
  -22326   -22012   -22437   -22919   -22408   -20736   -19039   -18151 
  -17350   -16047   -14842   -14054   -13323   -12391   -11202    -9861 
   -8449    -6784    -4723    -2677    -1474    -1215     -933      101 
    1771     3642     5165     5961     6231     6325     6215     5770 
    4901     3319     1070     -999    -2240    -2905    -3474    -4106 
   -4589    -4704    -4773    -5313    -6310    -7451    -8462    -8903 
   -8670    -8378    -8203    -7523    -6135    -4722    -4244    -4800 
   -5419    -5616    -5702    -5805    -6131    -6921    -7960    -9283 
  -11125   -12988   -14220   -14826   -14991   -14776   -14471   -14502 
  -14919   -15452   -15763   -15377   -14166   -12962   -12507   -12168 
  -11193    -9937    -8758    -7710    -6930    -5959    -4633    -4025 
   -4624    -5704    -6679    -7362    -7599    -7270    -6408    -5255 
   -4063    -3124    -2724    -2727    -2900    -3403    -4236    -4937 
   -5360    -5885    -6571    -7032    -7018    -6505    -5984    -6257 
   -7381    -9095   -11285   -13189   -14369   -15379   -16092   -16017 
  -15727   -15889   -16187   -15982   -15324   -14914   -15188   -15823 
  -16198   -15999   -15348   -14635   -14357   -14623   -14909   -14976 
  -15274   -16094   -17287   -18472   -19208   -19411   -19134   -18280 
  -17206   -16726   -17047   -17485   -17293   -16261   -14921   -14136 
  -13950   -13585   -12802   -12199   -12192   -12297   -11747   -10676 
   -9886    -9855   -10755   -12296   -13539   -14119   -14554   -14960 
  -15252   -15848   -16800   -17614   -18034   -18170   -18493   -19298 
  -20004   -20198   -20475   -21164   -21581   -21187   -20487   -20363 
  -20972   -21747   -22116   -21864   -21095   -20037   -18802   -17680 
  -17224   -17379   -17619   -17909   -18165   -18014   -17538   -16814 
  -15814   -15170   -15358   -15652   -15066   -13581   -11855   -10596 
  -10463   -11385   -12311   -12576   -12416   -12055   -11509   -10814 
   -9918    -8944    -8421    -8475    -8230    -6939    -4901    -2906 
   -1758    -1690    -1877    -1694    -1618    -1965    -2375    -2679 
   -2727    -2334    -2138    -2912    -4193    -4891    -4758    -4200 
   -3414    -2847    -3209    -4388    -5655    -6703    -7613    -8302 
   -8766    -9408   -10369   -11257   -11738   -11675   -11194   -10638 
  -10050    -9395    -9083    -9541   -10646   -11742   -12254   -12185 
  -11856   -11415   -10802   -10209    -9954   -10007   -10312   -10796 
  -10940   -10269    -9139    -8450    -8385    -8276    -7996    -8122 
   -8799    -9565    -9890    -9487    -8613    -7946    -7855    -8285 
   -9133   -10112   -10708   -10747   -10669   -10906   -11321   -11632 
  -11770   -11582   -11043   -10557   -10446   -10669   -11218   -12100 
  -13013   -13663   -14013   -13933   -13448   -13116   -13279   -13656 
  -13840   -13369   -12079   -10613    -9714    -9700   -10611   -11998 
  -13218   -13893   -13735   -12805   -11724   -10909   -10330   -10009 
  -10017   -10461   -11339   -12031   -12137   -12175   -12303   -12262 
  -12311   -12436   -12344   -12338   -12475   -12235   -11686   -11524 
  -12166   -13489   -15003   -16154   -16792   -17204   -17513   -17479 
  -16982   -16173   -15301   -14604   -13971   -13022   -11796   -10722 
   -9900    -9025    -7917    -6687    -5541    -4742    -4510    -4732 
   -5073    -5468    -6052    -6752    -7477    -8296    -9016    -9334 
   -9333    -9331    -9647   -10343   -11228   -12255   -13314   -14063 
  -14249   -13932   -13727   -13934   -13742   -12780   -11778   -11248 
  -11169   -11063   -10611   -10638   -11536   -12284   -12498   -12643 
  -12736   -12834   -13188   -13676   -14094   -14201   -13727   -12902 
  -12153   -11426   -10419    -9225    -8475    -8598    -9074    -9187 
   -8974    -8665    -8324    -8130    -8024    -7735    -7276    -6925 
   -6957    -7216    -7300    -7262    -7329    -7572    -8035    -8515 
   -8840    -9053    -8988    -8618    -8406    -8644    -8946    -8709 
   -7980    -7460    -7559    -8081    -8515    -8319    -7590    -7052 
   -6976    -6895    -6452    -5910    -5686    -5649    -5450    -5290 
   -5562    -6141    -6685    -7130    -7609    -8251    -9107   -10164 
  -11282   -12214   -12780   -12933   -12959   -13378   -14145   -14627 
  -14563   -14240   -13936   -13595   -12906   -11899   -11163   -11026 
  -11285   -11653   -11749   -11318   -10671   -10382   -10652   -11231 
  -11859   -12352   -12479   -12306   -12094   -11800   -11327   -10967 
  -11072   -11463   -11700   -11689   -11582   -11631   -12058   -12616 
  -12831   -12583   -12065   -11704   -11799   -11980   -11756   -11301 
  -11050   -11054   -11053   -10895   -10709   -10750   -11101   -11442 
  -11491   -11403   -11240   -10653    -9413    -7922    -6982    -6997 
   -7767    -9099   -10872   -12593   -13759   -14449   -14930   -15295 
  -15803   -16657   -17572   -18304   -18823   -18859   -18346   -17658 
  -16955   -16362   -16165   -16339   -16695   -17195   -17843   -18406 
  -18363   -17554   -16413   -15406   -14871   -14879   -15081   -15190 
  -15190   -15058   -14663   -13886   -12834   -11768   -10795    -9890 
   -9104    -8638    -8527    -8426    -8035    -7373    -6632    -6043 
   -5557    -4914    -4063    -3141    -2334    -1758    -1345    -1034 
    -798     -655     -703     -975    -1473    -2124    -2551    -2583 
   -2610    -3104    -4249    -5663    -6589    -6833    -6768    -6690 
   -6886    -7482    -8173    -8725    -9186    -9596    -9992   -10314 
  -10389   -10305   -10271   -10184    -9812    -9376    -9519   -10297 
  -10931   -10988   -10769   -10707   -11046   -11629   -12036   -12165 
  -12305   -12734   -13088   -12568   -11328   -10372   -10272   -11147 
  -12766   -14512   -16079   -17538   -18669   -19085   -18818   -18353 
